{"type": "FeatureCollection", "features": [ {"type": "Feature", "properties": {"norad_id": 30758, "name": "FENGYUN 1C DEB", "group": "fengyun-1c-debris", "lat": 70.16849313566094, "lon": 79.05042300153518, "alt_km": 817.8782828524336, "timestamp": "2025-12-12T11:38:31.690604+00:00", "meta": {"OBJECT_NAME": "FENGYUN 1C DEB", "OBJECT_ID": "1999-025ATU", "EPOCH": "2025-12-12T01:24:08.143776", "MEAN_MOTION": 14.17106185, "ECCENTRICITY": 0.0038424, "INCLINATION": 99.0177, "RA_OF_ASC_NODE": 104.7428, "ARG_OF_PERICENTER": 5.4157, "MEAN_ANOMALY": 51.0361, "EPHEMERIS_TYPE": 0, "CLASSIFICATION_TYPE": "U", "NORAD_CAT_ID": 30758, "ELEMENT_SET_NO": 999, "REV_AT_EPOCH": 96481, "BSTAR": 0.0016714, "MEAN_MOTION_DOT": 3.345e-05, "MEAN_MOTION_DDOT": 0}, "tle": {"line1": "1 30758U 99025ATU 25346.05842759  .00003345  00000+0  16714-2 0  9993", "line2": "2 30758  99.0177 104.7428 0038424   5.4157  51.0361 14.17106185964815"}}, "geometry": {"type": "Point", "coordinates": [79.05042300153518, 70.16849313566094]}}, {"type": "Feature", "properties": {"norad_id": 30759, "name": "FENGYUN 1C DEB", "group": "fengyun-1c-debris", "lat": 78.82699940497783, "lon": -30.136989740806182, "alt_km": 701.3406006297619, "timestamp": "2025-12-12T11:38:31.690615+00:00", "meta": {"OBJECT_NAME": "FENGYUN 1C DEB", "OBJECT_ID": "1999-025ATV", "EPOCH": "2025-12-11T20:54:58.915008", "MEAN_MOTION": 14.5448589, "ECCENTRICITY": 0.0009271, "INCLINATION": 99.2555, "RA_OF_ASC_NODE": 93.5369, "ARG_OF_PERICENTER": 168.1895, "MEAN_ANOMALY": 317.2268, "EPHEMERIS_TYPE": 0, "CLASSIFICATION_TYPE": "U", "NORAD_CAT_ID": 30759, "ELEMENT_SET_NO": 999, "REV_AT_EPOCH": 97642, "BSTAR": 0.0040678, "MEAN_MOTION_DOT": 0.00017326, "MEAN_MOTION_DDOT": 0}, "tle": {"line1": "1 30759U 99025ATV 25345.87151522  .00017326  00000+0  40678-2 0  9994", "line2": "2 30759  99.2555  93.5369 0009271 168.1895 317.2268 14.54485890976428"}}, "geometry": {"type": "Point", "coordinates": [-30.136989740806182, 78.82699940497783]}}, {"type": "Feature", "properties": {"norad_id": 30760, "name": "FENGYUN 1C DEB", "group": "fengyun-1c-debris", "lat": 0.4456834972903149, "lon": 163.24145038865572, "alt_km": 915.7685397249079, "timestamp": "2025-12-12T11:38:31.690626+00:00", "meta": {"OBJECT_NAME": "FENGYUN 1C DEB", "OBJECT_ID": "1999-025ATW", "EPOCH": "2025-12-11T22:49:37.435872", "MEAN_MOTION": 14.05178522, "ECCENTRICITY": 0.005288, "INCLINATION": 98.8221, "RA_OF_ASC_NODE": 342.6529, "ARG_OF_PERICENTER": 345.7817, "MEAN_ANOMALY": 14.186, "EPHEMERIS_TYPE": 0, "CLASSIFICATION_TYPE": "U", "NORAD_CAT_ID": 30760, "ELEMENT_SET_NO": 999, "REV_AT_EPOCH": 96211, "BSTAR": 0.00028531, "MEAN_MOTION_DOT": 4.23e-06, "MEAN_MOTION_DDOT": 0}, "tle": {"line1": "1 30760U 99025ATW 25345.95112773  .00000423  00000+0  28531-3 0  9995", "line2": "2 30760  98.8221 342.6529 0052880 345.7817  14.1860 14.05178522962111"}}, "geometry": {"type": "Point", "coordinates": [163.24145038865572, 0.4456834972903149]}}, {"type": "Feature", "properties": {"norad_id": 30761, "name": "FENGYUN 1C DEB", "group": "fengyun-1c-debris", "lat": -76.71815682813597, "lon": 50.59604224211995, "alt_km": 744.4292681002034, "timestamp": "2025-12-12T11:38:31.690636+00:00", "meta": {"OBJECT_NAME": "FENGYUN 1C DEB", "OBJECT_ID": "1999-025ATX", "EPOCH": "2025-12-11T17:42:07.591104", "MEAN_MOTION": 14.35765715, "ECCENTRICITY": 0.00844981, "INCLINATION": 98.9647, "RA_OF_ASC_NODE": 271.7876, "ARG_OF_PERICENTER": 316.9069, "MEAN_ANOMALY": 42.5521, "EPHEMERIS_TYPE": 0, "CLASSIFICATION_TYPE": "U", "NORAD_CAT_ID": 30761, "ELEMENT_SET_NO": 999, "REV_AT_EPOCH": 97727, "BSTAR": 0.0017930516, "MEAN_MOTION_DOT": 5.355e-05, "MEAN_MOTION_DDOT": 0}, "tle": {"line1": "1 30761U 99025ATX 25345.73758786  .00005355  00000+0  17931-2 0  9992", "line2": "2 30761  98.9647 271.7876 0084498 316.9069  42.5521 14.35765715977272"}}, "geometry": {"type": "Point", "coordinates": [50.59604224211995, -76.71815682813597]}}, {"type": "Feature", "properties": {"norad_id": 30762, "name": "FENGYUN 1C DEB", "group": "fengyun-1c-debris", "lat": 69.0384063355377, "lon": -178.65026508591274, "alt_km": 1036.604078393917, "timestamp": "2025-12-12T11:38:31.690646+00:00", "meta": {"OBJECT_NAME": "FENGYUN 1C DEB", "OBJECT_ID": "1999-025ATY", "EPOCH": "2025-12-09T11:36:12.119904", "MEAN_MOTION": 13.98083418, "ECCENTRICITY": 0.0197806, "INCLINATION": 98.8746, "RA_OF_ASC_NODE": 334.3766, "ARG_OF_PERICENTER": 304.1239, "MEAN_ANOMALY": 185.4578, "EPHEMERIS_TYPE": 0, "CLASSIFICATION_TYPE": "U", "NORAD_CAT_ID": 30762, "ELEMENT_SET_NO": 999, "REV_AT_EPOCH": 95592, "BSTAR": 0.00090408924, "MEAN_MOTION_DOT": 1.474e-05, "MEAN_MOTION_DDOT": 0}, "tle": {"line1": "1 30762U 99025ATY 25343.48347361  .00001474  00000+0  90409-3 0  9996", "line2": "2 30762  98.8746 334.3766 0197806 304.1239 185.4578 13.98083418955920"}}, "geometry": {"type": "Point", "coordinates": [-178.65026508591274, 69.0384063355377]}}, {"type": "Feature", "properties": {"norad_id": 30763, "name": "FENGYUN 1C DEB", "group": "fengyun-1c-debris", "lat": -70.14602982496085, "lon": 83.52615072045049, "alt_km": 681.3282074207291, "timestamp": "2025-12-12T11:38:31.690656+00:00", "meta": {"OBJECT_NAME": "FENGYUN 1C DEB", "OBJECT_ID": "1999-025ATZ", "EPOCH": "2025-12-12T04:00:01.367136", "MEAN_MOTION": 14.61069039, "ECCENTRICITY": 0.0023209, "INCLINATION": 98.8925, "RA_OF_ASC_NODE": 57.4884, "ARG_OF_PERICENTER": 270.6194, "MEAN_ANOMALY": 143.3528, "EPHEMERIS_TYPE": 0, "CLASSIFICATION_TYPE": "U", "NORAD_CAT_ID": 30763, "ELEMENT_SET_NO": 999, "REV_AT_EPOCH": 97136, "BSTAR": 0.0059279, "MEAN_MOTION_DOT": 0.00029298, "MEAN_MOTION_DDOT": 0}, "tle": {"line1": "1 30763U 99025ATZ 25346.16668249  .00029298  00000+0  59279-2 0  9999", "line2": "2 30763  98.8925  57.4884 0023209 270.6194 143.3528 14.61069039971364"}}, "geometry": {"type": "Point", "coordinates": [83.52615072045049, -70.14602982496085]}}, {"type": "Feature", "properties": {"norad_id": 30764, "name": "FENGYUN 1C DEB", "group": "fengyun-1c-debris", "lat": 79.92234063700946, "lon": -162.49471668573102, "alt_km": 458.10332110904983, "timestamp": "2025-12-12T11:38:31.690666+00:00", "meta": {"OBJECT_NAME": "FENGYUN 1C DEB", "OBJECT_ID": "1999-025AUA", "EPOCH": "2025-12-12T03:22:20.661024", "MEAN_MOTION": 15.29033659, "ECCENTRICITY": 0.007611, "INCLINATION": 98.7786, "RA_OF_ASC_NODE": 316.6969, "ARG_OF_PERICENTER": 172.0114, "MEAN_ANOMALY": 188.2354, "EPHEMERIS_TYPE": 0, "CLASSIFICATION_TYPE": "U", "NORAD_CAT_ID": 30764, "ELEMENT_SET_NO": 999, "REV_AT_EPOCH": 1213, "BSTAR": 0.0014252, "MEAN_MOTION_DOT": 0.00043962, "MEAN_MOTION_DDOT": 0}, "tle": {"line1": "1 30764U 99025AUA 25346.14051691  .00043962  00000+0  14252-2 0  9991", "line2": "2 30764  98.7786 316.6969 0076110 172.0114 188.2354 15.29033659 12139"}}, "geometry": {"type": "Point", "coordinates": [-162.49471668573102, 79.92234063700946]}}, {"type": "Feature", "properties": {"norad_id": 30765, "name": "FENGYUN 1C DEB", "group": "fengyun-1c-debris", "lat": -70.60909019752732, "lon": 58.5578861414921, "alt_km": 839.617704413954, "timestamp": "2025-12-12T11:38:31.690676+00:00", "meta": {"OBJECT_NAME": "FENGYUN 1C DEB", "OBJECT_ID": "1999-025AUB", "EPOCH": "2025-12-11T08:54:12.678912", "MEAN_MOTION": 14.14704892, "ECCENTRICITY": 0.00682155, "INCLINATION": 98.788, "RA_OF_ASC_NODE": 31.3897, "ARG_OF_PERICENTER": 213.0032, "MEAN_ANOMALY": 162.6992, "EPHEMERIS_TYPE": 0, "CLASSIFICATION_TYPE": "U", "NORAD_CAT_ID": 30765, "ELEMENT_SET_NO": 999, "REV_AT_EPOCH": 96803, "BSTAR": 0.0013236866, "MEAN_MOTION_DOT": 2.562e-05, "MEAN_MOTION_DDOT": 0}, "tle": {"line1": "1 30765U 99025AUB 25345.37098008  .00002562  00000+0  13237-2 0  9992", "line2": "2 30765  98.7880  31.3897 0068215 213.0032 162.6992 14.14704892968038"}}, "geometry": {"type": "Point", "coordinates": [58.5578861414921, -70.60909019752732]}}, {"type": "Feature", "properties": {"norad_id": 30766, "name": "FENGYUN 1C DEB", "group": "fengyun-1c-debris", "lat": 10.197509158988792, "lon": 168.45889140317627, "alt_km": 866.7316042577777, "timestamp": "2025-12-12T11:38:31.690687+00:00", "meta": {"OBJECT_NAME": "FENGYUN 1C DEB", "OBJECT_ID": "1999-025AUC", "EPOCH": "2025-12-07T19:13:34.697856", "MEAN_MOTION": 14.09511398, "ECCENTRICITY": 0.00837919, "INCLINATION": 98.6731, "RA_OF_ASC_NODE": 342.3735, "ARG_OF_PERICENTER": 88.3267, "MEAN_ANOMALY": 85.7006, "EPHEMERIS_TYPE": 0, "CLASSIFICATION_TYPE": "U", "NORAD_CAT_ID": 30766, "ELEMENT_SET_NO": 999, "REV_AT_EPOCH": 62727, "BSTAR": 0.0010705424, "MEAN_MOTION_DOT": 1.892e-05, "MEAN_MOTION_DDOT": 0}, "tle": {"line1": "1 30766U 99025AUC 25341.80109604  .00001892  00000+0  10705-2 0  9994", "line2": "2 30766  98.6731 342.3735 0083791  88.3267  85.7006 14.09511398627278"}}, "geometry": {"type": "Point", "coordinates": [168.45889140317627, 10.197509158988792]}}, {"type": "Feature", "properties": {"norad_id": 30768, "name": "FENGYUN 1C DEB", "group": "fengyun-1c-debris", "lat": 30.593883735709298, "lon": 71.07700971121108, "alt_km": 724.7061961422869, "timestamp": "2025-12-12T11:38:31.690697+00:00", "meta": {"OBJECT_NAME": "FENGYUN 1C DEB", "OBJECT_ID": "1999-025AUE", "EPOCH": "2025-12-11T17:56:59.599392", "MEAN_MOTION": 14.47873676, "ECCENTRICITY": 0.00253071, "INCLINATION": 98.6177, "RA_OF_ASC_NODE": 75.4702, "ARG_OF_PERICENTER": 103.3571, "MEAN_ANOMALY": 47.7759, "EPHEMERIS_TYPE": 0, "CLASSIFICATION_TYPE": "U", "NORAD_CAT_ID": 30768, "ELEMENT_SET_NO": 999, "REV_AT_EPOCH": 97856, "BSTAR": 0.0034690064, "MEAN_MOTION_DOT": 0.00012877, "MEAN_MOTION_DDOT": 0}, "tle": {"line1": "1 30768U 99025AUE 25345.74791203  .00012877  00000+0  34690-2 0  9999", "line2": "2 30768  98.6177  75.4702 0025307 103.3571  47.7759 14.47873676978563"}}, "geometry": {"type": "Point", "coordinates": [71.07700971121108, 30.593883735709298]}}]}